STARLINK-2742
1 18688C 21044BC  21326.17359557  .00009279  00000-0  62146-3 0  3264
2 18688  53.0543 267.9461 0002897  55.4207 273.7738 15.06401083    16
